#dP2023  9 29 12  0  0.00000000      96 __u+U ITR00 EXT  IAC
## 2281 475200.00000000   900.00000000 60216 0.5000000000000
+  120   C06C07C08C09C10C11C12C13C14C16C19C20C21C22C23C24C25
+        C26C27C28C29C30C32C33C34C35C36C37C38C39C40C41C42C43
+        C44C45C46E02E03E04E05E07E08E09E10E11E12E13E14E15E18
+        E19E21E24E25E26E27E30E31E33E34E36G01G02G03G04G05G06
+        G07G08G09G10G11G12G13G14G15G16G17G18G19G20G21G22G23
+        G24G25G26G27G28G29G30G31G32J02J03J04R01R02R03R04R05
+        R07R08R09R11R12R13R14R15R16R17R18R19R20R21R22R24R25
+        R26  0  0  0  0  0  0  0  0  0  0  0  0  0  0  0  0
++         9 11 10  8 10  9  9  8  9  8  8 10  8  8  9  8  6
++         9  8  8 10  9  8 10  9  8  8  9  9 11 10  9  8  8
++         8  8  9  7  7  7  7  7  8  7  7  8  8  8  7  7  8
++         8  8  8  7  8  7  6  9  8  8  7  7  7  7  7  7  7
++         7  6  8  7  8  8  7  6  7  8  7  7  7  6  7  7  7
++         7  7  7  7  9  8  8  7  7 10 10 11  9  8  7  8  8
++         9  9  8  8  9  9  9  8  8  8  9 10  9  8  8  9  9
++        10  0  0  0  0  0  0  0  0  0  0  0  0  0  0  0  0
%c M  cc GPS ccc cccc cccc cccc cccc ccccc ccccc ccccc ccccc
%c cc cc ccc ccc cccc cccc cccc cccc ccccc ccccc ccccc ccccc
%f  0.0000000  0.000000000  0.00000000000  0.000000000000000
%f  0.0000000  0.000000000  0.00000000000  0.000000000000000
%i    0    0    0    0      0      0      0      0         0
%i    0    0    0    0      0      0      0      0         0
/* IAC                                ULTRA-RAPID PREDICTION
/* S/V CLOCKS ARE ALIGNED TO GNSS TIME                      
/* G:C1WC2W R:C1PC2P E:C1XC5X C:C2IC6I J:C1CC2S             
/* PCV:IGS20_2280 OL/AL:FES2004  NONE     YN ORB:CoN CLK:CoN
*  2023 09 29 17 30  0.00000000
PC06  -3917.738257  39535.351122 -13700.285225     35.257905
PC07  -9774.636626  25868.513051  31905.627071    -81.011264
PC08 -20606.218670  31768.369761 -18794.567133    321.735403
PC09    -76.798393  41305.214968  -6325.715826    104.454201
PC10   -286.086237  27985.826315  31932.363110   -194.760066
PC11  -6269.245653 -26356.609368  -6555.966261    177.954916
PC12   7528.178359 -17155.916377 -20633.219958    917.753171
PC13 -14256.916412  32259.237319 -23184.728874    359.750624
PC14  -4585.566157 -15848.953606  22503.405023    495.250488
PC16  -7210.493713  36890.920213 -18532.878917   -102.701240
PC19  15149.123011  14146.059914 -18679.540809   -970.777966
PC20  -4572.605898  15211.474737 -22941.350181    244.252310
PC21  23309.123424  -7092.119365  13628.605022   -970.251330
PC22  27260.726870   4943.269603  -3448.945635   -286.981009
PC23 -17298.002916  -2710.484546 -21723.653634   -857.813203
PC24  11699.136157 -24491.833161  -6431.494904    443.282871
PC25  -5088.786140 -18507.728176 -20256.984522    221.959977
PC26  19977.129040 -16646.009492  10066.783515   -184.670477
PC27 -13235.541664   9257.464406  22739.456343    206.293371
PC28 -18462.120174  -9263.355791  18767.247887    154.995957
PC29  13681.542231  24226.173605  -2200.244151    181.091731
PC30   -247.430153  23440.830477  15124.114620     -5.688456
PC32 -23315.985347   7211.447485 -13519.454372   -528.522153
PC33 -15090.646589 -14113.262014  18745.411977   -961.729637
PC34   -849.319424 -24115.065732 -14037.924913    270.233110
PC35  18852.196785   8554.764186 -18707.946695    536.005954
PC36   3935.127524  19200.758273  19893.275231   -202.848531
PC37 -20509.267526  15588.050225 -10750.625874   -839.685990
PC38 -25082.777101  32340.573303 -10490.666771    107.943966
PC39  -8845.175226  33798.160681 -23394.395529     -5.015222
PC40 -14249.439549  19212.777809  34718.770763    -38.298707
PC41 -27070.809477  -5326.522410   4215.449811   -875.352512
PC42   6323.767131 -14985.076612  22712.331048   -534.359075
PC43 -13151.123148 -24585.687424   1325.527330     41.843860
PC44  13115.334053  -9649.074019 -22675.503226    246.471621
PC45  17459.215848   2133.167262  21661.899280    -30.863177
PC46 -10904.756551  24567.617068   7581.044608    -88.041269
PE02 -23889.318012  15499.855828   8108.365641     66.483730
PE03 -13775.822903  10578.948374 -23976.624552    -60.511399
PE04  -5407.223366 -21576.542412  19529.459446   -223.084783
PE05 -24964.793096  -6582.103409 -14481.931179     22.885985
PE07  21364.511365  20119.198857  -3900.090549    -78.437311
PE08   5016.555873  21348.018701 -19891.739999   -153.811001
PE09 -21314.132812 -20126.427947   4050.778952   -173.777193
PE10  -3685.497431 -27062.089878  11385.357452   -567.410204
PE11  -9927.720963 -19933.374856  19491.293312   3013.889069
PE12   2576.814440 -29396.410590   2353.745503   -716.902063
PE13   9519.435205  20533.626514 -19076.758566    -19.730283
PE14   5494.264020 -18946.008418 -21097.947523    354.428259
PE15  -2825.224727  29405.750932  -1911.350549    -57.173803
PE18  11866.186142  23889.127796  11172.283631    587.486583
PE19  15814.185565  -8355.420030  23585.014436  -1529.100314
PE21  27680.438329  -3873.681685   9749.038533   -555.477211
PE24 -15082.225452 -11081.864389 -22945.339985   -348.427739
PE25 -27603.087400   3616.108651 -10054.800590     -2.516481
PE26  16347.334956   -997.474159 -24651.976395    236.802273
PE27  15608.209928  10643.827495  22792.848076   -162.176401
PE30  -6003.458245  18800.389795  22060.778252   -539.673607
PE31   5510.512175 -18713.297166 -22249.216064     -6.294876
PE33  13564.110928 -20413.256744 -16583.880804     -0.078364
PE34 -13295.554777  20985.223871  16103.848485    -69.682394
PE36 -16115.820814    224.333329  24829.525355   -123.025773
PG01 -13523.252831  15454.376067  16305.972474    164.470279
PG02 -14868.971923   8738.487997  20655.846650   -548.116987
PG03 -22654.273101  12693.747209  -5436.018498   -108.009112
PG04 -13796.530183   7709.774910 -21354.853677    170.229775
PG05  24658.627146  -3870.553901  -9403.560414   -144.598893
PG06   6651.146576  20702.741163 -15123.711095    540.952629
PG07  -5333.970852  25643.840697  -1871.916513     53.842955
PG08 -20843.956224  -1094.622472  16580.358847   -144.666659
PG09  -4580.329529  15365.244503 -21255.312062    -46.318041
PG10  -5216.494918 -13928.775249  22184.080820    -55.359076
PG11  13251.973104   8682.877917 -21309.051499   -392.099791
PG12  24570.334822  -9665.569254  -2773.954182   -430.308846
PG13  21245.642260  11105.713860  11466.488707    578.295655
PG14   1156.872359  15839.588058  21292.738258    199.450645
PG15  20418.042371  -2169.457880  16489.422991     82.261026
PG16 -23258.078251  -2804.076265 -13247.180602   -446.858152
PG17   9828.265306  21072.772867  13162.947409    723.874213
PG18   4679.549972 -26041.867650   -272.622960   -433.184871
PG19  16294.759944  20651.011787   4618.582519    378.176577
PG20  18874.348143   3788.535786 -18177.406141    409.369607
PG21 -15353.449827   4514.118249  21570.628528    147.883632
PG22   8256.059042  13414.117685  21812.827501    112.376917
PG23   8670.147074 -17123.060033  18287.201564     75.324637
PG24  14540.666974 -11104.628691  18724.460700   -332.922556
PG25  15405.660687 -16801.493806 -13722.640679    470.268287
PG26 -16073.643423  -8460.512983 -19611.199666    225.985165
PG27 -22797.461098 -12214.348723   6678.523274    -47.390399
PG28  -6721.186904 -22003.276278 -13296.383654    -17.103340
PG29   5480.827753 -14770.082454 -21411.600220   -609.732051
PG30   1568.090020  25319.457725   7520.885893   -483.312241
PG31 -11704.171643 -13611.597047 -19627.763165   -224.026225
PG32 -14599.165662 -20159.306528   9734.348170   -565.461966
PJ02 -31133.849578  26274.763172  16055.861058     -4.818153
PJ03 -27130.896455  25460.403436  24936.121756     -3.837158
PJ04 -30470.157521  20290.374200 -15836.498504     70.847408
PR01 -21485.438176   1276.075218 -13690.728316     66.655954
PR02  -6265.753422   9319.043262 -22871.041636    -22.413257
PR03  12344.780865  12521.219386 -18411.779326     86.139668
PR04  23595.603009   8810.117166  -3952.902069    204.814208
PR05  22126.772628    396.824006  12663.272363    119.797746
PR07 -13177.870049 -12543.146467  17939.152478     65.738785
PR08 -23713.176370  -8650.289732   3866.099139    -72.742841
PR09  13820.676649 -19938.141360  -7991.668453    144.933836
PR11 -12355.542793  -2509.319324 -22158.445351   -179.421258
PR12 -19738.886140  12951.404567  -9649.282143     31.809767
PR13 -15298.837361  19505.879281   6005.112564    -39.713623
PR14   -538.058064  14790.811509  20784.976643     25.334415
PR15  13342.741315   1524.674234  21710.606684     85.782489
PR16  19616.972785 -12909.478993  10015.302339     19.162284
PR17   7183.806671  24370.915221  -2537.031356     21.376233
PR18  11477.577207  14702.512293 -17362.415939    104.376317
PR19  10445.265065   -540.378847 -23263.207025   -249.057818
PR20   2723.835444 -20381.278047 -15105.153879   -100.890310
PR21  -7369.024142 -24150.131545   3490.599661    -41.750818
PR22 -11468.742501 -14118.695147  17913.787912     86.397478
PR24  -1966.818306  20897.391679  14533.098181    -26.288244
PR25  -6141.989031 -24614.038575   2532.988460     30.536940
PR26 -23604.909866  -8650.452285   4274.561191    -22.311260
EOF
